satname,norad_id,inclination_deg,eccentricity,mean_motion_rev_per_day,perigee_km,apogee_km,l1,l2
STARLINK-1260,45404,53.0537,0.0001489,15.06395875,546.1930142152642,548.2553867807719,1 45404U 20019AW  25254.18219618  .00000694  00000+0  65474-4 0  9991,2 45404  53.0537 222.4616 0001489  87.3994 272.7165 15.06395875302809
STARLINK-1263,45405,53.0538,0.0001166,15.06429226,546.3145007080075,547.9294711035209,1 45405U 20019AX  25253.63666400 -.00008744  00000+0 -56836-3 0  9993,2 45405  53.0538 224.9080 0001166  65.7974 294.3137 15.06429226302721
STARLINK-1265,45406,53.0537,0.0001366,15.06394658,546.281925597772,548.1739352967707,1 45406U 20019AY  25254.17482999  .00000468  00000+0  50324-4 0  9993,2 45406  53.0537 222.4929 0001366  91.9438 268.1707 15.06394658302805
STARLINK-1278,45408,53.0539,0.0001271,15.06379606,546.3938435700329,548.1542830623293,1 45408U 20019BA  25254.26790003  .00000813  00000+0  73497-4 0  9993,2 45408  53.0539 252.0767 0001271  94.4703 265.6432 15.06379606302405
STARLINK-1296,45412,53.0544,0.0001553,15.06390985,546.1636768307135,548.3146986746306,1 45412U 20019BE  25254.17852580 -.00000191  00000+0  60621-5 0  9993,2 45412  53.0544 222.4759 0001553  89.9135 270.2032 15.06390985302804
STARLINK-1298,45413,53.0522,0.0008823,15.40617497,438.2662822765369,450.3051293832441,1 45413U 20019BF  25254.16012339  .00099740  00000+0  23883-2 0  9996,2 45413  53.0522 212.9077 0008823  54.4601 305.7225 15.40617497303032
STARLINK-1309,45414,53.0544,0.0001363,15.06391668,546.2931659468813,548.181022925025,1 45414U 20019BG  25254.19325582  .00000284  00000+0  37950-4 0  9994,2 45414  53.0544 222.4118 0001363  89.6628 270.4517 15.06391668302795
STARLINK-1316,45415,53.0541,0.0001459,15.06394804,546.2170722976252,548.237893653757,1 45415U 20019BH  25253.62193035 -.00000572  00000+0 -19480-4 0  9998,2 45415  53.0541 224.9716 0001459  88.7140 271.4016 15.06394804302744
STARLINK-1318,45416,53.0547,0.0001164,15.54723557,402.16701485707654,403.745653385261,1 45416U 20019BJ  25253.60455919  .00030442  00000+0  45592-3 0  9998,2 45416  53.0547 211.1247 0001164 104.6368 255.4771 15.54723557302925
STARLINK-1286,45417,53.0531,0.0001213,15.06400635,546.3695672114118,548.0496562994231,1 45417U 20019BK  25253.99145060  .00000461  00000+0  49836-4 0  9998,2 45417  53.0531 253.3192 0001213  90.4167 269.6961 15.06400635302632
STARLINK-1308,45419,53.0535,0.0001221,15.06385523,546.4103377370166,548.1015186900868,1 45419U 20019BM  25254.25315729 -.00000081  00000+0  13436-4 0  9997,2 45419  53.0535 252.1443 0001221  90.1638 269.9491 15.06385523302429
STARLINK-1329,45531,53.0547,0.0001377,15.06392257,546.2816654555054,548.1889129839574,1 45531U 20025A   25254.22182454  .00000488  00000+0  51670-4 0  9995,2 45531  53.0547 192.2809 0001377  92.1549 267.9598 15.06392257298042
STARLINK-1338,45532,53.0544,0.0001507,15.0639301,546.189328108182,548.2766346205653,1 45532U 20025B   25254.23287787  .00001476  00000+0  11801-3 0  9991,2 45532  53.0544 192.2300 0001507  98.6886 261.4274 15.06393010298044
STARLINK-1350,45535,53.0751,0.0003103,15.30819089,471.24118249670937,475.49322600586675,1 45535U 20025E   25254.10514598  .00007137  00000+0  24814-3 0  9991,2 45535  53.0751 153.1576 0003103  97.5268 262.6085 15.30819089298605
STARLINK-1362,45538,53.0557,0.0001456,15.06392311,546.2267895348832,548.2434578973098,1 45538U 20025H   25254.26508125  .00000011  00000+0  19639-4 0  9994,2 45538  53.0557 191.8058 0001456  92.4612 267.6544 15.06392311298053
STARLINK-1368,45540,53.0553,0.0001351,15.06392265,546.2996469077125,548.170882493635,1 45540U 20025K   25254.26974263 -.00000609  00000+0 -21987-4 0  9991,2 45540  53.0553 192.0661 0001351  94.1180 265.9964 15.06392265298042
STARLINK-1371,45542,53.0539,0.000161,15.06407467,546.0736953199412,548.3036501865681,1 45542U 20025M   25254.10755886  .00001326  00000+0  10791-3 0  9999,2 45542  53.0539 192.7959 0001610  85.3496 274.7677 15.06407467298023
STARLINK-1372,45543,53.0548,0.000162,15.06398213,546.0951274876725,548.3389421949605,1 45543U 20025N   25254.21077866 -.00000328  00000+0 -31267-5 0  9993,2 45543  53.0548 192.3292 0001620  92.6483 267.4691 15.06398213297132
STARLINK-1373,45544,53.0542,0.0001541,15.06393623,546.163903369159,548.2983018183786,1 45544U 20025P   25254.22919553  .00002106  00000+0  16024-3 0  9999,2 45544  53.0542 192.2506 0001541  88.3603 271.7562 15.06393623298048
STARLINK-1294,45551,53.052,0.0005628,15.48769908,416.4972454933768,424.1495925410227,1 45551U 20025W   25253.97206393  .00076771  00000+0  14003-2 0  9992,2 45551  53.0520 143.9278 0005628 150.7576 209.3748 15.48769908298709
STARLINK-1323,45553,53.0372,0.0008402,15.85317535,309.806848943178,321.0547202484131,1 45553U 20025Y   25254.25004630  .00122524  00000+0  49819-3 0  9998,2 45553  53.0372 128.1814 0008402  70.0357 169.4546 15.85317535  6054
STARLINK-1325,45554,53.0604,9.52e-05,15.45328453,429.7649749780576,431.06132292641905,1 45554U 20025Z   25254.07129022  .00043756  00000+0  90691-3 0  9995,2 45554  53.0604 134.9237 0000952 165.1220 194.9814 15.45328453298842
STARLINK-1327,45555,53.0542,0.0001514,15.06392154,546.187103490236,548.2841063150008,1 45555U 20025AA  25254.06885654  .00001951  00000+0  14985-3 0  9998,2 45555  53.0542 172.9669 0001514  86.1671 273.9491 15.06392154298296
STARLINK-1336,45557,53.0392,0.0010309,15.79904352,323.7952404449625,337.62754406010754,1 45557U 20025AC  25254.25004630  .00081023  00000+0  42731-3 0  9996,2 45557  53.0392 133.3441 0010309  81.2307  94.6887 15.79904352  6028
STARLINK-1342,45558,53.0452,0.0007575,15.88625374,301.07264665492676,311.19932022483863,1 45558U 20025AD  25254.25004630  .00230077  00000+0  78401-3 0  9995,2 45558  53.0452 130.6249 0007575  81.1395 166.0485 15.88625374  5974
STARLINK-1355,45563,53.0322,0.0006665,16.01983956,264.4947866386856,273.3553203559968,1 45563U 20025AJ  25254.36435738  .00465423  10736-3  79306-3 0  9991,2 45563  53.0322  59.7208 0006665 293.3553  66.6775 16.01983956299908
STARLINK-1356,45564,53.0531,0.0001048,15.06385377,546.5305944639549,547.9821569154983,1 45564U 20025AK  25254.20524344 -.00002612  00000+0 -15661-3 0  9999,2 45564  53.0531 172.3557 0001048  87.4581 272.6528 15.06385377298319
STARLINK-1357,45565,53.0668,0.0008657,15.24290727,486.9677993015039,498.86434058680607,1 45565U 20025AL  25254.15603147  .00023320  00000+0  95204-3 0  9991,2 45565  53.0668 165.1724 0008657  80.9470 279.2507 15.24290727298410
STARLINK-1361,45567,53.0548,0.0001487,15.06392243,546.2055292622954,548.2651349938697,1 45567U 20025AN  25254.15732068 -.00000374  00000+0 -62159-5 0  9999,2 45567  53.0548 172.5708 0001487  81.1378 278.9779 15.06392243298319
STARLINK-1363,45568,53.0537,0.0001501,15.06386159,546.2144777486774,548.2934801205529,1 45568U 20025AP  25254.03940826  .00000079  00000+0  24193-4 0  9995,2 45568  53.0537 173.3427 0001501  93.7751 266.3409 15.06386159298282
STARLINK-1366,45569,53.0532,0.0001464,15.06382093,546.2525617941301,548.2803199216123,1 45569U 20025AQ  25254.16102062 -.00000390  00000+0 -73144-5 0  9991,2 45569  53.0532 172.5515 0001464  82.8481 277.2674 15.06382093298305
STARLINK-1376,45570,53.0531,0.0001341,15.06392261,546.3065845378615,548.1639693825418,1 45570U 20025AR  25254.15363298 -.00000501  00000+0 -14767-4 0  9991,2 45570  53.0531 172.5875 0001341  88.5020 271.6122 15.06392261298305
STARLINK-1320,45572,53.0611,0.0008799,15.3407365,457.6532841700746,469.69350209991353,1 45572U 20025AT  25254.04285213  .00045385  00000+0  13587-2 0  9995,2 45572  53.0611 127.7334 0008799 132.0115 228.1637 15.34073650298949
STARLINK-1321,45573,53.0534,0.0001392,15.06396276,546.2589613774062,548.186981593467,1 45573U 20025AU  25254.13980691  .00000728  00000+0  67790-4 0  9997,2 45573  53.0534 162.6489 0001392  91.9352 268.1797 15.06396276298145
STARLINK-1328,45576,53.0543,0.0001431,15.52293545,409.06000163006775,411.00277542286403,1 45576U 20025AX  25254.15415606  .00092997  00000+0  14932-2 0  9998,2 45576  53.0543 157.9662 0001431 123.4914 236.6232 15.52293545298529
STARLINK-1331,45578,53.0557,0.0001675,15.06387402,546.0901669120694,548.4101716137739,1 45578U 20025AZ  25254.05134775 -.00001443  00000+0 -78040-4 0  9994,2 45578  53.0557 163.0497 0001675 109.8708 250.2462 15.06387402298442
STARLINK-1333,45580,53.0509,0.0001213,15.06391035,546.398986395362,548.0790826213333,1 45580U 20025BB  25254.19049805 -.00000017  00000+0  17769-4 0  9997,2 45580  53.0509 172.4217 0001213  94.4929 265.6198 15.06391035298317
STARLINK-1335,45581,53.054,0.0001395,15.06395925,546.257959388432,548.1901351206152,1 45581U 20025BC  25253.99606530  .00002071  00000+0  15788-3 0  9998,2 45581  53.0540 163.2953 0001395  92.3368 267.7781 15.06395925298428
STARLINK-1337,45582,53.0561,0.0001315,15.06398062,546.3068135190842,548.1281817519612,1 45582U 20025BD  25254.15088022  .00002860  00000+0  21082-3 0  9998,2 45582  53.0561 162.5983 0001315 108.5491 251.5641 15.06398062298449
STARLINK-1347,45586,53.0583,0.0007694,15.23577672,489.7714958300685,500.34797096342027,1 45586U 20025BH  25253.99877741  .00019174  00000+0  80260-3 0  9996,2 45586  53.0583 156.1633 0007694  85.1204 275.0671 15.23577672298513
STARLINK-1349,45587,53.0399,0.0002111,16.10886919,243.013335752491,245.80937566827288,1 45587U 20025BJ  25254.76352309  .00746854  31881-3  73144-3 0  9991,2 45587  53.0399 108.1261 0002111 261.5472  98.5323 16.10886919299268
STARLINK-1360,45588,53.0484,5.32e-05,15.6531029,371.9873916120796,372.7056430583234,1 45588U 20025BK  25253.83953755  .00047752  00000+0  47411-3 0  9995,2 45588  53.0484  91.1314 0000532 273.9183  86.1770 15.65310290299425
STARLINK-1364,45589,53.054,0.0001251,15.06389391,546.3777080138734,548.1104383583843,1 45589U 20025BL  25254.15455914  .00000936  00000+0  81751-4 0  9995,2 45589  53.0540 162.5836 0001251  91.9176 268.1957 15.06389391298443
